STARLINK-34683          
1 64857U 25152R   26162.56224941  .00003461  00000+0  24358-3 0  9993
2 64857  97.3741  17.2443 0003044  76.2704 283.8862 15.05673902 49548
STARLINK-34654          
1 64858U 25152S   26162.60655970 -.00001098  00000+0 -72066-4 0  9995
2 64858  97.3721  17.3217 0002760  80.0180 280.1359 15.05666882 49553
STARLINK-34575          
1 64859U 25152T   26162.60102002  .00004334  00000+0  30409-3 0  9997
2 64859  97.3733  17.3403 0002171  99.4058 260.7415 15.05660071 49559
STARLINK-34570          
1 64860U 25152U   26162.59269837 -.00001734  00000+0 -11621-3 0  9995
2 64860  97.3755  17.2064 0002079  77.0012 283.1448 15.05656796 49549
STARLINK-34651          
1 64861U 25152V   26162.57886542  .00005367  00000+0  37563-3 0  9999
2 64861  97.3733  17.2355 0002678  93.6790 266.4744 15.05650707 49540
STARLINK-34684          
1 64862U 25152W   26162.55394153  .00005160  00000+0  36126-3 0  9995
2 64862  97.3748  17.2561 0001696  80.7780 279.3640 15.05662692 49545
STARLINK-34690          
1 64863U 25152X   26162.61209591  .00005943  00000+0  41547-3 0  9996
2 64863  97.3733  17.3293 0002165  77.5639 282.5831 15.05656148 49550
STARLINK-34628          
1 64864U 25152Y   26162.55671125  .00002833  00000+0  20021-3 0  9995
2 64864  97.3747  17.2455 0002030  84.9505 275.1954 15.05658184 49545
STARLINK-34544          
1 64865U 25152Z   26162.54839768  .00002471  00000+0  17518-3 0  9999
2 64865  97.3737  17.2546 0001607 100.6279 259.5130 15.05648822 49549
O3B MPOWER F9           
1 64866U 25153A   26162.17916360 -.00000009  00000+0  00000+0 0  9994
2 64866   0.0581  10.6652 0006299  91.2964 258.1115  5.00115684 19264
O3B MPOWER F10          
1 64867U 25153B   26162.34504443 -.00000009  00000+0  00000+0 0  9999
2 64867   0.0562   6.4953 0001885 253.5889  99.8969  5.00114834 21745
LIDE                    
1 64869U 25154A   26162.43397208  .00002662  00000+0  25297-3 0  9996
2 64869  97.6719 226.3935 0004152 241.3154 118.7649 14.94315143 48144
TRACERS 1               
1 64870U 25154B   26162.61338340  .00001162  00000+0  11581-3 0  9995
2 64870  97.6692 226.3944 0003924 277.8318  82.2457 14.93456766 48168
ATHENA EPIC             
1 64871U 25154C   26162.44301680  .00001448  00000+0  14073-3 0  9990
2 64871  97.6673 226.3824 0005176 262.4186  97.6446 14.94087588 48159
SKYCRAFT-4B             
1 64872U 25154D   26162.62711777  .00005380  00000+0  46559-3 0  9996
2 64872  97.6665 227.3521 0003829 277.0704  83.0082 14.97561841 48211
TRACERS 2               
1 64873U 25154E   26162.61315711  .00001123  00000+0  11206-3 0  9996
2 64873  97.6695 226.4054 0002941 338.1132  21.9962 14.93455371 48162
PEXT (BARD)             
1 64874U 25154F   26162.44717393  .00002641  00000+0  12428-3 0  9993
2 64874  97.3967 227.5654 0001607 337.2371  22.8793 15.20414821 48970
REAL                    
1 64875U 25154G   26162.15177564  .00018563  00000+0  59350-3 0  9997
2 64875  97.4038 230.4816 0001754 125.0433 235.0973 15.32484635 49128
IONOSFERA-M 3           
1 64876U 25155A   26162.61471947  .00000038  00000+0  36940-4 0  9991
2 64876  98.6022 124.6601 0000683 167.2886 192.8309 14.21485550 45618
IONOSFERA-M 4           
1 64877U 25155B   26162.64956997  .00000039  00000+0  37307-4 0  9997
2 64877  98.6021 124.6115 0000844 118.7633 241.3629 14.21487740 45616
INNOSAT 16 (RS92S7)     
1 64878U 25155C   26162.62304753  .00005050  00000+0  20264-3 0  9994
2 64878  97.4555 129.7686 0009866 195.2389 164.8553 15.25397996 79829
GEOSCAN 6 (RS92S6)      
1 64879U 25155D   26162.62280503  .00009233  00000+0  31981-3 0  9996
2 64879  97.4547 131.1533 0007596 180.8724 179.2504 15.30047938 79910
GEOSCAN 1 (RS92S1)      
1 64880U 25155E   26162.62740248  .00009736  00000+0  33102-3 0  9990
2 64880  97.4543 131.3011 0007551 180.4484 179.6751 15.30634689 79925
239ALFEROV (RS61S)      
1 64881U 25155F   26162.60492969  .00013687  00000+0  43406-3 0  9991
2 64881  97.4544 131.8213 0007249 177.1686 182.9598 15.32791043 79956
2025-155G               
1 64882U 25155G   26162.60069673  .00008346  00000+0  29500-3 0  9999
2 64882  97.4571 131.1083 0007090 181.4742 178.6478 15.29423133 79902
2025-155H               
1 64883U 25155H   26162.53544284  .00002273  00000+0  82306-4 0  9995
2 64883  97.4567 131.0195 0007196 176.9089 183.2197 15.29430581 79894
2025-155J               
1 64884U 25155J   26162.53510699  .00008411  00000+0  29716-3 0  9994
2 64884  97.4559 131.0117 0007787 171.0230 189.1151 15.29427220 79891
2025-155K               
1 64885U 25155K   26162.61436478  .00026805  00000+0  68605-3 0  9993
2 64885  97.4500 133.1365 0007757 161.0607 199.0929 15.39359083 80055
2025-155L               
1 64886U 25155L   26162.60306126  .00030612  00000+0  73344-3 0  9996
2 64886  97.4454 133.3962 0007688 159.3864 200.7694 15.41342099 80070
2025-155M               
1 64887U 25155M   26162.70703854  .00025353  00000+0  67829-3 0  9994
2 64887  97.4492 132.9087 0007946 160.5914 199.5635 15.38004328 80046
