OBJECT_NAME,OBJECT_ID,EPOCH,MEAN_MOTION,ECCENTRICITY,INCLINATION,RA_OF_ASC_NODE,ARG_OF_PERICENTER,MEAN_ANOMALY,EPHEMERIS_TYPE,CLASSIFICATION_TYPE,NORAD_CAT_ID,ELEMENT_SET_NO,REV_AT_EPOCH,BSTAR,MEAN_MOTION_DOT,MEAN_MOTION_DDOT
STARLINK-34683,2025-152R,2026-06-11T13:29:38.349024,15.05673902,.0003044,97.3741,17.2443,76.2704,283.8862,0,U,64857,999,4954,.24358E-3,.3461E-4,0
STARLINK-34654,2025-152S,2026-06-11T14:33:26.758080,15.05666882,.000276,97.3721,17.3217,80.0180,280.1359,0,U,64858,999,4955,-.72066E-4,-.1098E-4,0
STARLINK-34575,2025-152T,2026-06-11T14:25:28.129728,15.05660071,.00021711,97.3733,17.3403,99.4058,260.7415,0,U,64859,999,4955,.30409419E-3,.4334E-4,0
STARLINK-34570,2025-152U,2026-06-11T14:13:29.139168,15.05656796,.00020792,97.3755,17.2064,77.0012,283.1448,0,U,64860,999,4954,-.11621186E-3,-.1734E-4,0
STARLINK-34651,2025-152V,2026-06-11T13:53:33.972288,15.05650707,.00026781,97.3733,17.2355,93.6790,266.4744,0,U,64861,999,4954,.37562645E-3,.5367E-4,0
STARLINK-34684,2025-152W,2026-06-11T13:17:40.548192,15.05662692,.00016961,97.3748,17.2561,80.7780,279.3640,0,U,64862,999,4954,.36126277E-3,.516E-4,0
STARLINK-34690,2025-152X,2026-06-11T14:41:25.086624,15.05656148,.00021651,97.3733,17.3293,77.5639,282.5831,0,U,64863,999,4955,.41547361E-3,.5943E-4,0
STARLINK-34628,2025-152Y,2026-06-11T13:21:39.852000,15.05658184,.000203,97.3747,17.2455,84.9505,275.1954,0,U,64864,999,4954,.20021389E-3,.2833E-4,0
STARLINK-34544,2025-152Z,2026-06-11T13:09:41.559552,15.05648822,.00016079,97.3737,17.2546,100.6279,259.5130,0,U,64865,999,4954,.17518203E-3,.2471E-4,0
O3B MPOWER F9,2025-153A,2026-06-11T04:17:59.735040,5.00115684,.00062994,0.0581,10.6652,91.2964,258.1115,0,U,64866,999,1926,0,-.9E-7,0
O3B MPOWER F10,2025-153B,2026-06-11T08:16:51.838752,5.00114834,.00018853,0.0562,6.4953,253.5889,99.8969,0,U,64867,999,2174,0,-.9E-7,0
LIDE,2025-154A,2026-06-11T10:24:55.187712,14.94315143,.00041527,97.6719,226.3935,241.3154,118.7649,0,U,64869,999,4814,.25296711E-3,.2662E-4,0
TRACERS 1,2025-154B,2026-06-11T14:43:16.325760,14.93456766,.0003924,97.6692,226.3944,277.8318,82.2457,0,U,64870,999,4816,.1158071E-3,.1162E-4,0
ATHENA EPIC,2025-154C,2026-06-11T10:37:56.651520,14.94087588,.00051763,97.6673,226.3824,262.4186,97.6446,0,U,64871,999,4815,.14072842E-3,.1448E-4,0
SKYCRAFT-4B,2025-154D,2026-06-11T15:03:02.975328,14.97561841,.00038297,97.6665,227.3521,277.0704,83.0082,0,U,64872,999,4821,.46559301E-3,.538E-4,0
TRACERS 2,2025-154E,2026-06-11T14:42:56.774304,14.93455371,.00029417,97.6695,226.4054,338.1132,21.9962,0,U,64873,999,4816,.11205709E-3,.1123E-4,0
PEXT (BARD),2025-154F,2026-06-11T10:43:55.827552,15.20414821,.0001607,97.3967,227.5654,337.2371,22.8793,0,U,64874,999,4897,.12427633E-3,.2641E-4,0
REAL,2025-154G,2026-06-11T03:38:33.415296,15.32484635,.00017541,97.4038,230.4816,125.0433,235.0973,0,U,64875,999,4912,.59349972E-3,.18563E-3,0
IONOSFERA-M 3,2025-155A,2026-06-11T14:45:11.762208,14.21485550,.00006832,98.6022,124.6601,167.2886,192.8309,0,U,64876,999,4561,.36940093E-4,.38E-6,0
IONOSFERA-M 4,2025-155B,2026-06-11T15:35:22.845408,14.21487740,.00008446,98.6021,124.6115,118.7633,241.3629,0,U,64877,999,4561,.37306908E-4,.39E-6,0
INNOSAT 16 (RS92S7),2025-155C,2026-06-11T14:57:11.306592,15.25397996,.00098666,97.4555,129.7686,195.2389,164.8553,0,U,64878,999,7982,.2026412E-3,.505E-4,0
GEOSCAN 6 (RS92S6),2025-155D,2026-06-11T14:56:50.354592,15.30047938,.00075965,97.4547,131.1533,180.8724,179.2504,0,U,64879,999,7991,.31981058E-3,.9233E-4,0
GEOSCAN 1 (RS92S1),2025-155E,2026-06-11T15:03:27.574272,15.30634689,.00075516,97.4543,131.3011,180.4484,179.6751,0,U,64880,999,7992,.33102364E-3,.9736E-4,0
239ALFEROV (RS61S),2025-155F,2026-06-11T14:31:05.925216,15.32791043,.00072494,97.4544,131.8213,177.1686,182.9598,0,U,64881,999,7995,.43405646E-3,.13687E-3,0
2025-155G,2025-155G,2026-06-11T14:25:00.197472,15.29423133,.00070903,97.4571,131.1083,181.4742,178.6478,0,U,64882,999,7990,.29499899E-3,.8346E-4,0
2025-155H,2025-155H,2026-06-11T12:51:02.261376,15.29430581,.00071968,97.4567,131.0195,176.9089,183.2197,0,U,64883,999,7989,.82305885E-4,.2273E-4,0
2025-155J,2025-155J,2026-06-11T12:50:33.243936,15.29427220,.00077878,97.4559,131.0117,171.0230,189.1151,0,U,64884,999,7989,.29716368E-3,.8411E-4,0
2025-155K,2025-155K,2026-06-11T14:44:41.116992,15.39359083,.00077577,97.4500,133.1365,161.0607,199.0929,0,U,64885,999,8005,.68605414E-3,.26805E-3,0
2025-155L,2025-155L,2026-06-11T14:28:24.492864,15.41342099,.00076885,97.4454,133.3962,159.3864,200.7694,0,U,64886,999,8007,.7334381E-3,.30612E-3,0
2025-155M,2025-155M,2026-06-11T16:58:08.129856,15.38004328,.0007946,97.4492,132.9087,160.5914,199.5635,0,U,64887,999,8004,.67829E-3,.25353E-3,0
